{"type": "FeatureCollection", "features": [ {"type": "Feature", "properties": {"norad_id": 66920, "name": "HULIANWANG DIGUI-110", "group": "last-30-days", "lat": -30.267360197142686, "lon": -94.320019675777, "alt_km": 890.1435291774405, "timestamp": "2025-12-27T16:33:28.974270+00:00", "meta": {"OBJECT_NAME": "HULIANWANG DIGUI-110", "OBJECT_ID": "2025-285F", "EPOCH": "2025-12-27T12:05:15.893088", "MEAN_MOTION": 14.02447262, "ECCENTRICITY": 0.0003197, "INCLINATION": 50.009, "RA_OF_ASC_NODE": 57.107, "ARG_OF_PERICENTER": 344.0544, "MEAN_ANOMALY": 16.0259, "EPHEMERIS_TYPE": 0, "CLASSIFICATION_TYPE": "U", "NORAD_CAT_ID": 66920, "ELEMENT_SET_NO": 999, "REV_AT_EPOCH": 298, "BSTAR": 0.0001212, "MEAN_MOTION_DOT": 3.6e-07, "MEAN_MOTION_DDOT": 0}, "tle": {"line1": "1 66920U 25285F   25361.50365617  .00000036  00000+0  12120-3 0  9992", "line2": "2 66920  50.0090  57.1070 0003197 344.0544  16.0259 14.02447262  2987"}}, "geometry": {"type": "Point", "coordinates": [-94.320019675777, -30.267360197142686]}}, {"type": "Feature", "properties": {"norad_id": 66921, "name": "HULIANWANG DIGUI-111", "group": "last-30-days", "lat": -33.187330767820605, "lon": -90.36795496232303, "alt_km": 890.5577667815078, "timestamp": "2025-12-27T16:33:28.974282+00:00", "meta": {"OBJECT_NAME": "HULIANWANG DIGUI-111", "OBJECT_ID": "2025-285G", "EPOCH": "2025-12-27T12:04:00.490944", "MEAN_MOTION": 14.02553861, "ECCENTRICITY": 0.0004779, "INCLINATION": 50.0128, "RA_OF_ASC_NODE": 57.0997, "ARG_OF_PERICENTER": 347.7308, "MEAN_ANOMALY": 12.3479, "EPHEMERIS_TYPE": 0, "CLASSIFICATION_TYPE": "U", "NORAD_CAT_ID": 66921, "ELEMENT_SET_NO": 999, "REV_AT_EPOCH": 298, "BSTAR": 1.8388e-05, "MEAN_MOTION_DOT": -1.23e-06, "MEAN_MOTION_DDOT": 0}, "tle": {"line1": "1 66921U 25285G   25361.50278346 -.00000123  00000+0  18388-4 0  9996", "line2": "2 66921  50.0128  57.0997 0004779 347.7308  12.3479 14.02553861  2988"}}, "geometry": {"type": "Point", "coordinates": [-90.36795496232303, -33.187330767820605]}}, {"type": "Feature", "properties": {"norad_id": 66922, "name": "HULIANWANG DIGUI-112", "group": "last-30-days", "lat": -37.15919526545001, "lon": -84.17708449821936, "alt_km": 890.5928720650945, "timestamp": "2025-12-27T16:33:28.974293+00:00", "meta": {"OBJECT_NAME": "HULIANWANG DIGUI-112", "OBJECT_ID": "2025-285H", "EPOCH": "2025-12-27T12:02:11.999328", "MEAN_MOTION": 14.02693799, "ECCENTRICITY": 0.0004915, "INCLINATION": 50.0101, "RA_OF_ASC_NODE": 57.0843, "ARG_OF_PERICENTER": 358.8707, "MEAN_ANOMALY": 1.2185, "EPHEMERIS_TYPE": 0, "CLASSIFICATION_TYPE": "U", "NORAD_CAT_ID": 66922, "ELEMENT_SET_NO": 999, "REV_AT_EPOCH": 298, "BSTAR": 0.00017002, "MEAN_MOTION_DOT": 1.13e-06, "MEAN_MOTION_DDOT": 0}, "tle": {"line1": "1 66922U 25285H   25361.50152777  .00000113  00000+0  17002-3 0  9995", "line2": "2 66922  50.0101  57.0843 0004915 358.8707   1.2185 14.02693799  2984"}}, "geometry": {"type": "Point", "coordinates": [-84.17708449821936, -37.15919526545001]}}, {"type": "Feature", "properties": {"norad_id": 66923, "name": "HULIANWANG DIGUI-113", "group": "last-30-days", "lat": -41.15859712379506, "lon": -76.49664932373189, "alt_km": 888.4735620932825, "timestamp": "2025-12-27T16:33:28.974303+00:00", "meta": {"OBJECT_NAME": "HULIANWANG DIGUI-113", "OBJECT_ID": "2025-285J", "EPOCH": "2025-12-27T10:17:37.359168", "MEAN_MOTION": 14.02922953, "ECCENTRICITY": 0.0003193, "INCLINATION": 50.011, "RA_OF_ASC_NODE": 57.3693, "ARG_OF_PERICENTER": 344.4808, "MEAN_ANOMALY": 15.5998, "EPHEMERIS_TYPE": 0, "CLASSIFICATION_TYPE": "U", "NORAD_CAT_ID": 66923, "ELEMENT_SET_NO": 999, "REV_AT_EPOCH": 297, "BSTAR": -1.6332e-06, "MEAN_MOTION_DOT": -1.54e-06, "MEAN_MOTION_DDOT": 0}, "tle": {"line1": "1 66923U 25285J   25361.42890462 -.00000154  00000+0 -16332-5 0  9991", "line2": "2 66923  50.0110  57.3693 0003193 344.4808  15.5998 14.02922953  2977"}}, "geometry": {"type": "Point", "coordinates": [-76.49664932373189, -41.15859712379506]}}, {"type": "Feature", "properties": {"norad_id": 66924, "name": "CZ-8A R/B", "group": "last-30-days", "lat": 34.58544431321304, "lon": 87.87782398595401, "alt_km": 815.8467741321147, "timestamp": "2025-12-27T16:33:28.974315+00:00", "meta": {"OBJECT_NAME": "CZ-8A R/B", "OBJECT_ID": "2025-285K", "EPOCH": "2025-12-27T09:37:32.123136", "MEAN_MOTION": 14.30507714, "ECCENTRICITY": 0.0119224, "INCLINATION": 50.0086, "RA_OF_ASC_NODE": 53.746, "ARG_OF_PERICENTER": 158.4223, "MEAN_ANOMALY": 202.1776, "EPHEMERIS_TYPE": 0, "CLASSIFICATION_TYPE": "U", "NORAD_CAT_ID": 66924, "ELEMENT_SET_NO": 999, "REV_AT_EPOCH": 302, "BSTAR": 8.3486e-05, "MEAN_MOTION_DOT": 7.1e-07, "MEAN_MOTION_DDOT": 0}, "tle": {"line1": "1 66924U 25285K   25361.40106624  .00000071  00000+0  83486-4 0  9999", "line2": "2 66924  50.0086  53.7460 0119224 158.4223 202.1776 14.30507714  3029"}}, "geometry": {"type": "Point", "coordinates": [87.87782398595401, 34.58544431321304]}}, {"type": "Feature", "properties": {"norad_id": 66925, "name": "STARLINK-35945", "group": "last-30-days", "lat": 51.20116243362117, "lon": 87.37347646871065, "alt_km": 403.1696562882835, "timestamp": "2025-12-27T16:33:28.974326+00:00", "meta": {"OBJECT_NAME": "STARLINK-35945", "OBJECT_ID": "2025-286A", "EPOCH": "2025-12-27T12:00:02.000160", "MEAN_MOTION": 15.52887, "ECCENTRICITY": 0.0001334, "INCLINATION": 53.1593, "RA_OF_ASC_NODE": 337.1185, "ARG_OF_PERICENTER": 67.2725, "MEAN_ANOMALY": 53.8722, "EPHEMERIS_TYPE": 0, "CLASSIFICATION_TYPE": "U", "NORAD_CAT_ID": 66925, "ELEMENT_SET_NO": 999, "REV_AT_EPOCH": 436, "BSTAR": -0.036123, "MEAN_MOTION_DOT": -0.02037034, "MEAN_MOTION_DDOT": 0}, "tle": {"line1": "1 66925U 25286A   25361.50002315 -.02037034  00000+0 -36123-1 0  9990", "line2": "2 66925  53.1593 337.1185 0001334  67.2725  53.8722 15.52887000  4360"}}, "geometry": {"type": "Point", "coordinates": [87.37347646871065, 51.20116243362117]}}, {"type": "Feature", "properties": {"norad_id": 66926, "name": "STARLINK-35942", "group": "last-30-days", "lat": 49.556306107893604, "lon": 37.861175402714544, "alt_km": 409.05492714521733, "timestamp": "2025-12-27T16:33:28.974336+00:00", "meta": {"OBJECT_NAME": "STARLINK-35942", "OBJECT_ID": "2025-286B", "EPOCH": "2025-12-27T12:00:02.000160", "MEAN_MOTION": 15.50920084, "ECCENTRICITY": 0.0001213, "INCLINATION": 53.1592, "RA_OF_ASC_NODE": 337.1787, "ARG_OF_PERICENTER": 56.3789, "MEAN_ANOMALY": 35.1096, "EPHEMERIS_TYPE": 0, "CLASSIFICATION_TYPE": "U", "NORAD_CAT_ID": 66926, "ELEMENT_SET_NO": 999, "REV_AT_EPOCH": 436, "BSTAR": -0.038082, "MEAN_MOTION_DOT": -0.02003696, "MEAN_MOTION_DDOT": 0}, "tle": {"line1": "1 66926U 25286B   25361.50002315 -.02003696  00000+0 -38082-1 0  9994", "line2": "2 66926  53.1592 337.1787 0001213  56.3789  35.1096 15.50920084  4368"}}, "geometry": {"type": "Point", "coordinates": [37.861175402714544, 49.556306107893604]}}, {"type": "Feature", "properties": {"norad_id": 66927, "name": "STARLINK-35943", "group": "last-30-days", "lat": 50.255953094210945, "lon": 40.640362210392624, "alt_km": 408.9446408685899, "timestamp": "2025-12-27T16:33:28.974348+00:00", "meta": {"OBJECT_NAME": "STARLINK-35943", "OBJECT_ID": "2025-286C", "EPOCH": "2025-12-27T12:00:02.000160", "MEAN_MOTION": 15.5094693, "ECCENTRICITY": 0.0001168, "INCLINATION": 53.1594, "RA_OF_ASC_NODE": 337.1742, "ARG_OF_PERICENTER": 66.6943, "MEAN_ANOMALY": 26.7051, "EPHEMERIS_TYPE": 0, "CLASSIFICATION_TYPE": "U", "NORAD_CAT_ID": 66927, "ELEMENT_SET_NO": 999, "REV_AT_EPOCH": 436, "BSTAR": -0.038844, "MEAN_MOTION_DOT": -0.02041151, "MEAN_MOTION_DDOT": 0}, "tle": {"line1": "1 66927U 25286C   25361.50002315 -.02041151  00000+0 -38844-1 0  9999", "line2": "2 66927  53.1594 337.1742 0001168  66.6943  26.7051 15.50946930  4362"}}, "geometry": {"type": "Point", "coordinates": [40.640362210392624, 50.255953094210945]}}, {"type": "Feature", "properties": {"norad_id": 66928, "name": "STARLINK-35944", "group": "last-30-days", "lat": 48.79527059342806, "lon": 35.17319278899278, "alt_km": 409.11242278970985, "timestamp": "2025-12-27T16:33:28.974360+00:00", "meta": {"OBJECT_NAME": "STARLINK-35944", "OBJECT_ID": "2025-286D", "EPOCH": "2025-12-27T12:00:02.000160", "MEAN_MOTION": 15.50948607, "ECCENTRICITY": 0.0001216, "INCLINATION": 53.1593, "RA_OF_ASC_NODE": 337.1818, "ARG_OF_PERICENTER": 65.7424, "MEAN_ANOMALY": 23.8217, "EPHEMERIS_TYPE": 0, "CLASSIFICATION_TYPE": "U", "NORAD_CAT_ID": 66928, "ELEMENT_SET_NO": 999, "REV_AT_EPOCH": 436, "BSTAR": -0.038874, "MEAN_MOTION_DOT": -0.02042703, "MEAN_MOTION_DDOT": 0}, "tle": {"line1": "1 66928U 25286D   25361.50002315 -.02042703  00000+0 -38874-1 0  9997", "line2": "2 66928  53.1593 337.1818 0001216  65.7424  23.8217 15.50948607  4369"}}, "geometry": {"type": "Point", "coordinates": [35.17319278899278, 48.79527059342806]}}, {"type": "Feature", "properties": {"norad_id": 66929, "name": "STARLINK-36169", "group": "last-30-days", "lat": 50.88396369925243, "lon": 43.4850702733073, "alt_km": 408.832905662578, "timestamp": "2025-12-27T16:33:28.974370+00:00", "meta": {"OBJECT_NAME": "STARLINK-36169", "OBJECT_ID": "2025-286E", "EPOCH": "2025-12-27T12:00:02.000160", "MEAN_MOTION": 15.50923722, "ECCENTRICITY": 0.0001264, "INCLINATION": 53.1593, "RA_OF_ASC_NODE": 337.1706, "ARG_OF_PERICENTER": 59.7572, "MEAN_ANOMALY": 35.5623, "EPHEMERIS_TYPE": 0, "CLASSIFICATION_TYPE": "U", "NORAD_CAT_ID": 66929, "ELEMENT_SET_NO": 999, "REV_AT_EPOCH": 436, "BSTAR": -0.038165, "MEAN_MOTION_DOT": -0.0200786, "MEAN_MOTION_DDOT": 0}, "tle": {"line1": "1 66929U 25286E   25361.50002315 -.02007860  00000+0 -38165-1 0  9996", "line2": "2 66929  53.1593 337.1706 0001264  59.7572  35.5623 15.50923722  4368"}}, "geometry": {"type": "Point", "coordinates": [43.4850702733073, 50.88396369925243]}}]}